*******************************************************************************
 Revised: Jun 17, 2016             Miranda / (Uranus)                       705

 SATELLITE PHYSICAL PROPERTIES:
  Radius (km)           = 240x234.2x232.9   Density (g cm^-3)   =  1.20 +- 0.14
  Mass (10^20 kg )      =  0.659 +- 0.075   Geometric Albedo    =  0.27 
                                            V(1,0)              = +3.6 

 SATELLITE ORBITAL DATA:
  Semi-major axis, a (km) = 129.8 (10^3)    Orbital period      =  1.413 d
  Eccentricity, e         =   0.0027        Rotational period   = Synchronous
  Inclination, i  (deg)   =   4.22
*******************************************************************************
 
 
*******************************************************************************
Ephemeris / WWW_USER Fri Jun 19 18:38:07 2020 Pasadena, USA      / Horizons
*******************************************************************************
Target body name: Miranda (705)                   {source: ura111}
Center body name: Solar System Barycenter (0)     {source: DE431mx}
Center-site name: BODY CENTER
*******************************************************************************
Start time      : A.D. 1969-Jun-28 00:00:00.0000 TDB
Stop  time      : A.D. 2071-May-04 00:00:00.0000 TDB
Step-size       : 7200 minutes
*******************************************************************************
Center geodetic : 0.00000000,0.00000000,0.0000000 {E-lon(deg),Lat(deg),Alt(km)}
Center cylindric: 0.00000000,0.00000000,0.0000000 {E-lon(deg),Dxy(km),Dz(km)}
Center radii    : (undefined)                                                  
Output units    : AU-D
Output type     : GEOMETRIC cartesian states
Output format   : 2 (position and velocity)
Reference frame : Ecliptic of J2000.0
*******************************************************************************
            JDTDB,            Calendar Date (TDB),        delta-T,                      X,                      Y,                      Z,                     VX,                     VY,                     VZ,
******************************************************************************************************************************************************************************************************************
$$SOE
2447960.500000000, A.D. 1990-Mar-10 00:00:00.0000,      57.185496,  2.176617227661160E+00, -1.926882024000673E+01, -9.999786349235248E-02,  3.110204366419372E-03,  1.129332231822149E-03,  3.632557685339204E-03,
2447965.500000000, A.D. 1990-Mar-15 00:00:00.0000,      57.185548,  2.197658178649849E+00, -1.926796076843216E+01, -1.000088546364231E-01,  3.773383152035447E-03, -3.695617150076008E-04, -3.850769957676477E-03,
2447970.500000000, A.D. 1990-Mar-20 00:00:00.0000,      57.185589,  2.215410154229288E+00, -1.926612493239833E+01, -1.000920665911153E-01,  4.836598524342642E-03,  6.323345168886560E-04,  3.675044275528046E-03,
2447975.500000000, A.D. 1990-Mar-25 00:00:00.0000,      57.185619,  2.236335482117641E+00, -1.926533124028433E+01, -1.008906404285402E-01,  2.110576744478321E-03,  1.973812737157416E-04, -3.473558758095102E-03,
2447980.500000000, A.D. 1990-Mar-30 00:00:00.0000,      57.185639,  2.254369114181129E+00, -1.926341035406388E+01, -1.002246698396771E-01,  6.356172086119079E-03,  5.450126421510735E-05,  2.905909831691378E-03,
2447985.500000000, A.D. 1990-Apr-04 00:00:00.0000,      57.185645,  2.274845399981232E+00, -1.926256214562158E+01, -1.016918327356333E-01,  8.312439734193579E-04,  7.795880844845580E-04, -2.355912637602754E-03,
2447990.500000000, A.D. 1990-Apr-09 00:00:00.0000,      57.185637,  2.293453416634619E+00, -1.926067822873213E+01, -1.004742000039655E-01,  7.335758268365474E-03, -4.745277140811905E-04,  1.493628833157722E-03,
2447995.500000000, A.D. 1990-Apr-14 00:00:00.0000,      57.185617,  2.313244328134284E+00, -1.925965872275951E+01, -1.023456003963018E-01,  2.098425084861846E-04,  1.251976320236739E-03, -7.408531402876828E-04,
2448000.500000000, A.D. 1990-Apr-19 00:00:00.0000,      57.185586,  2.332593143068094E+00, -1.925791689835252E+01, -1.008935374657884E-01,  7.563361801589888E-03, -8.368605308358139E-04, -2.524781557753937E-04,
2448005.500000000, A.D. 1990-Apr-24 00:00:00.0000,      57.185545,  2.351609752159900E+00, -1.925663819891206E+01, -1.028165047361198E-01,  3.787720453099952E-04,  1.514086656709409E-03,  1.024992725902152E-03,
2448010.500000000, A.D. 1990-Apr-29 00:00:00.0000,      57.185493,  2.371705153311569E+00, -1.925510412198659E+01, -1.014983824487130E-01,  6.990777687067935E-03, -9.518643303464290E-04, -1.953657245385102E-03,
2448015.500000000, A.D. 1990-May-04 00:00:00.0000,      57.185429,  2.390024203381894E+00, -1.925352625938955E+01, -1.031088658221894E-01,  1.304064987197146E-03,  1.510271520458190E-03,  2.562747495793033E-03,
2448020.500000000, A.D. 1990-May-09 00:00:00.0000,      57.185354,  2.410710029365911E+00, -1.925221174904877E+01, -1.022638711136557E-01,  5.743026040045817E-03, -7.930772719304846E-04, -3.240318560259322E-03,
2448025.500000000, A.D. 1990-May-14 00:00:00.0000,      57.185269,  2.428558554482681E+00, -1.925035176103475E+01, -1.032656869237818E-01,  2.788665159342569E-03,  1.241673551279570E-03,  3.536886964048531E-03,
2448030.500000000, A.D. 1990-May-19 00:00:00.0000,      57.185175,  2.449549086174300E+00, -1.924921184112662E+01, -1.031298939009047E-01,  4.092573961736323E-03, -3.942356873169336E-04, -3.832985929566255E-03,
2448035.500000000, A.D. 1990-May-24 00:00:00.0000,      57.185075,  2.467256216871300E+00, -1.924714033241982E+01, -1.033593275874571E-01,  4.509870181886018E-03,  7.686466962558682E-04,  3.732731185817043E-03,
2448040.500000000, A.D. 1990-May-29 00:00:00.0000,      57.184968,  2.488198044725573E+00, -1.924608312569923E+01, -1.040151140462289E-01,  2.398499418114208E-03,  1.578800928338761E-04, -3.606238904726464E-03,
2448045.500000000, A.D. 1990-Jun-03 00:00:00.0000,      57.184852,  2.506122005899732E+00, -1.924390825966674E+01, -1.034755546937949E-01,  6.093539394294365E-03,  1.967691946376379E-04,  3.107598035590624E-03,
2448050.500000000, A.D. 1990-Jun-08 00:00:00.0000,      57.184729,  2.526671967536739E+00, -1.924281561454281E+01, -1.048342726816706E-01,  1.024140600422628E-03,  7.444973155934979E-04, -2.612526330240487E-03,
2448055.500000000, A.D. 1990-Jun-13 00:00:00.0000,      57.184600,  2.545122017282395E+00, -1.924065928995200E+01, -1.036955337666488E-01,  7.195610951864675E-03, -3.469741779450918E-04,  1.795725766398527E-03,
2448060.500000000, A.D. 1990-Jun-18 00:00:00.0000,      57.184469,  2.565021042278192E+00, -1.923941238149429E+01, -1.055161192156496E-01,  2.631404640006222E-04,  1.240572496804886E-03, -1.064980275722632E-03,
2448065.500000000, A.D. 1990-Jun-23 00:00:00.0000,      57.184336,  2.584191648708707E+00, -1.923738398233390E+01, -1.040783245528342E-01,  7.574806652967794E-03, -7.412927823936281E-04,  8.158872898769240E-05,
2448070.500000000, A.D. 1990-Jun-28 00:00:00.0000,      57.184201,  2.603319646770919E+00, -1.923588896583826E+01, -1.060188890849897E-01,  2.811602882558909E-04,  1.539511549815729E-03,  7.044623666721851E-04,
2448075.500000000, A.D. 1990-Jul-03 00:00:00.0000,      57.184062,  2.623248569576910E+00, -1.923406135253950E+01, -1.046467032314232E-01,  7.147710015902219E-03, -8.973865328880166E-04, -1.660101207953392E-03,
2448080.500000000, A.D. 1990-Jul-08 00:00:00.0000,      57.183923,  2.641651585503123E+00, -1.923227034076944E+01, -1.063396438967539E-01,  1.075091768808197E-03,  1.577551591824991E-03,  2.312450818894151E-03,
2448085.500000000, A.D. 1990-Jul-13 00:00:00.0000,      57.183783,  2.662210639467482E+00, -1.923066356427611E+01, -1.053827044626857E-01,  6.010421928486081E-03, -7.802038431039655E-04, -3.048572383410219E-03,
2448090.500000000, A.D. 1990-Jul-18 00:00:00.0000,      57.183647,  2.680091245998359E+00, -1.922858518417175E+01, -1.065146268265176E-01,  2.473014901696923E-03,  1.348292085537540E-03,  3.411503989789286E-03,
2448095.500000000, A.D. 1990-Jul-23 00:00:00.0000,      57.183515,  2.701014421535830E+00, -1.922716249130958E+01, -1.062326074437007E-01,  4.412409877511125E-03, -4.153129050762177E-04, -3.785215635596583E-03,
2448100.500000000, A.D. 1990-Jul-28 00:00:00.0000,      57.183385,  2.718687079705234E+00, -1.922485952587957E+01, -1.066108160785045E-01,  4.175208583059997E-03,  9.027303941758993E-04,  3.762598225540021E-03,
2448105.500000000, A.D. 1990-Aug-02 00:00:00.0000,      57.183259,  2.739629224171256E+00, -1.922353581579647E+01, -1.071184135428573E-01,  2.698100062764508E-03,  1.188615923394231E-04, -3.713947356350324E-03,
2448110.500000000, A.D. 1990-Aug-07 00:00:00.0000,      57.183137,  2.757451712422051E+00, -1.922111139524807E+01, -1.067127706247638E-01,  5.813642151250764E-03,  3.393644442337550E-04,  3.286235843425931E-03,
2448115.500000000, A.D. 1990-Aug-12 00:00:00.0000,      57.183021,  2.778062497246581E+00, -1.921977152948654E+01, -1.079538024853536E-01,  1.236960901398648E-03,  7.074671421148847E-04, -2.849959018908612E-03,
2448120.500000000, A.D. 1990-Aug-17 00:00:00.0000,      57.182913,  2.796358741304959E+00, -1.921734681259894E+01, -1.069047393737927E-01,  7.029338967331013E-03, -2.160508781272884E-04,  2.082748906834643E-03,
2448125.500000000, A.D. 1990-Aug-22 00:00:00.0000,      57.182815,  2.816358086598921E+00, -1.921587053239578E+01, -1.086628088236405E-01,  3.447878485120429E-04,  1.223589676623484E-03, -1.380828416923034E-03,
2448130.500000000, A.D. 1990-Aug-27 00:00:00.0000,      57.182725,  2.835348459433107E+00, -1.921355825380373E+01, -1.072510202373553E-01,  7.555386425730922E-03, -6.389680025661828E-04,  4.154988519302850E-04,
2448135.500000000, A.D. 1990-Sep-01 00:00:00.0000,      57.182642,  2.854587177119245E+00, -1.921184670430236E+01, -1.091977140348390E-01,  2.109916808682827E-04,  1.557156843058752E-03,  3.753393044645744E-04,
